Unnamed: 0,name,address,lat,lon
Unnamed: 0,name,address,lat,lon
1,,17822 Center Drive FL 32438,30.47135,-85.42401
2,,11771 Highway 231 FL 32466,30.36065,-85.43918
3,,11412 N Beer Creek Road FL 32404,30.32015,-85.44082
4,,6010 Jaycee Drive FL 32404,30.315,-85.55415
5,,13010 Highway 77 FL 32409,30.38642,-85.68424
6,,7734 Franklin Avenue FL 32409,30.29085,-85.643
7,,6326 Laird Park Road FL 32413,30.29113,-85.85962
8,,20800 Panama City Beach Pkwy FL 32413,30.25609,-85.94183
9,,204 Cobb Road FL 32413,30.23084,-85.90402
10,,16200 Panama City Beach Pkwy FL 32413,30.22979,-85.87753
11,,423 Lyndell Lane FL 32407,30.19791,-85.82999
12,,9129 Front Beach Road FL 32407,30.18069,-85.78941
13,,1616 Allison Avenue FL 32407,30.18612,-85.78773
14,,1000 Thomas Dr FL 32408,30.17435,-85.76147
15,,2909 Thomas Drive FL 32408,30.1545,-85.74932
16,,5940 Highway 2311 FL 32404,30.2572,-85.58628
17,,5715 Highway 231 FL 32404,30.24668,-85.56117
18,,108 East 9th Street FL 32444,30.24564,-85.64774
19,,1005 Ohio Avenue FL 32444,30.24309,-85.64818
20,,1202 Virginia Avenue FL 32444,30.24044,-85.65493
21,,3238 East Highway 390 FL 32444,30.23208,-85.6118
22,,4102 West Higway 390 FL 32444,30.22081,-85.66263
23,,2601 South Highway 77 FL 32444,30.21784,-85.6486
24,,3701 West Highway 390 FL 32444,30.21698,-85.66945
25,,2501 Michigan Avenue FL 32401,30.19343,-85.70876
26,,1415 Airport Road FL 32401,30.19177,-85.68434
27,,2413 North Harrison Avenue FL 32405,30.19172,-85.67431
28,,4201 West 22nd Street FL 32405,30.18929,-85.71598
29,,1101 West 19th Street FL 32405,30.18257,-85.68116
30,,1701 North East Ave FL 32405,30.17932,-85.62614
31,,898 West 11th Street FL 32401,30.16844,-85.67286
32,,722 East 9th Court FL 32401,30.16516,-85.64915
33,,2728 East 14th Street FL 32405,30.17256,-85.62352
34,,8 Harrison Avenue FL 32401,30.15218,-85.66299
35,,904 East 4th Street FL 32405,30.19172,-85.67431
36,,320 Kraft Avenue FL 32401,30.15403,-85.62202
37,,3728 East 3rd Street FL 32401,30.15237,-85.61036
38,,6619 Highway 22 FL 32404,30.15329,-85.57588
39,,500 Callaway Parkway FL 32404,30.15848,-85.54726
40,,505 South Tyndall Pkwy FL 32404,30.13803,-85.59001
41,,500 Beulah Avenue FL 32404,30.13817,-85.57124
42,,935 West Park Street FL 32404,30.12969,-85.60506
43,,908 South Tyndall Pkwy FL 32404,30.13051,-85.59188
44,,109 North 31st Street FL 32456,29.94982,-85.41809
