name,address,lat,lon
,21471 North River Road Alva FL 33920,26.71876,-81.60792
,14531 Old Olga Rd Fort Myers FL 33905,26.7161,-81.72122
,2514 Lee Blvd Lehigh Acres FL 33971,26.61627,-81.66309
,881 Gunnery Rd N Lehigh Acres FL 33971,26.6226,-81.71648
,12925 Palm Beach Blvd Fort Myers FL 33905,26.70322,-81.74571
,4630 Palm Beach Blvd Fort Myers FL 33905,26.67297,-81.81681
,3061 E Riverside Dr Fort Myers FL 33916,26.65721,-81.85308
,9550 Six Mile Cypress Pkwy Fort Myers FL 33966,26.60357,-81.8127
,3750 Colonial Blvd Fort Myers FL 33966,26.59555,-81.83541
,13180 S Cleveland Ave Fort Myers FL 33907,26.55009,-81.87408
,8188 Lord's Way St Estero FL 33928,26.44094,-81.80937
,26740 Pine Ave Bonita Springs FL 34135,26.34835,-81.78591
,5701 Pine Island Rd Bokeelia FL 33922,26.61276,-82.12017
,2401 Library Way Sanibel FL 33957,26.43818,-82.0781
,11550 Chapin Lane Captiva FL 33924,26.52015,-82.19174
,131 First Street W. Boca Grande FL 33921,26.74701,-82.26126
,8660 Daniels Pkwy Fort Myers FL 33912,26.54463,-81.81159
,15690 Mc Gregor Blvd Fort Myers FL 33908,26.51391,-81.95109
,12175 Stringfellow Rd Bokeelia FL 33922,26.63768,-82.12713
,17601 San Carlos Blvd Fort Myers Beach FL 33931,26.48501,-81.93848
,27701 Bonita Grande Dr Bonita Springs FL 34135,26.33598,-81.73716
,27200 Kent Rd Bonita Springs FL 34135,26.34352,-81.74806
,235 Suite C Joel Blv Lehigh Acres FL 33936,26.60961,-81.60427
,12171 Iona Road Fort Myers FL 33908,26.51778,-81.95501
,2608 Country Club Blvd Cape Coral FL 33904,26.60382,-81.95697
,2110 Chiquita Blvd S Cape Coral FL 33991,26.61271,-82.0087
,2691 NE Pine Island Rd Cape Coral FL 33909,26.67965,-81.91767
,1900 Park Meadows Dr Fort Myers FL 33907,26.56661,-81.8764
,2990 Edison Ave Fort Myers FL 33916,26.63336,-81.85189
,11735 Plantation Rd Fort Myers FL 33966,26.57249,-81.84587
,18412 Lee Rd Fort Myers FL 33967,26.47184,-81.8142
,5817 Driftwood Pkwy Cape Coral FL 33904,26.54292,-81.95133
,2951 Trail Dairy Circ Cir North Fort Myers FL 33917,26.73639,-81.90908
,2000 N Recreation Park Way North Fort Myers FL 33903,26.6884,-81.88816
,7101 Bayshore Rd North Fort Myers FL 33917,26.70987,-81.84025
,25987 S Tamiami Trl Bonita Springs FL 34134,26.36319,-81.80676
,24861 Old 41 Rd Bonita Springs FL 34135,26.38022,-81.80568
,5146 Leonard Blvd S Lehigh Acres FL 33973,26.61199,-81.74477
,4241 Buckingham Rd Fort Myers FL 33905,26.68171,-81.73015
,5011 Mc Gregor Blvd Fort Myers FL 33901,26.59754,-81.88979
,1801 Boy Scout Dr Fort Myers FL 33907,26.58274,-81.87626
,2061 McGregor Blvd Fort Myers FL 33901,26.63847,-81.87408
,28388 Beaumont Rd Bonita Springs FL 34134,26.32663,-81.807
,1430 Homestead Rd N Lehigh Acres FL 33936,26.61293,-81.65372
,1250 Business Way Lehigh Acres FL 33936,26.60614,-81.65203
,705 Leeland Heights Blvd E Lehigh Acres FL 33936,26.60364,-81.61943
,204 SW 11Th Pl Cape Coral FL 33991,26.64731,-81.99835
,5505 Rose Garden Rd Cape Coral FL 33914,26.54676,-81.98193
,55 Homestead Rd S Lehigh Acres FL 33936,26.59595,-81.63467
,8260 Cypress Lake Dr Fort Myers FL 33919,26.54716,-81.89174
,9200 Corkscrew Palms Blvd Estero FL 33928,26.42842,-81.80168
,19680 Cypress View Dr Fort Myers FL 33967,26.4527,-81.79579
,2001 N Tamiami Trl North Fort Myers FL 33903,26.68807,-81.88648
,940 Pondella Rd North Fort Myers FL 33903,26.66784,-81.91672
,2250 Herons Glen Pkwy North Fort Myers FL 33917,26.76746,-81.917
,19601 Ben Hill Griffin Pkwy Fort Myers FL 33913,26.45695,-81.77896
,11831 Bayshore Rd North Fort Myers FL 33917,26.71954,-81.76429
,11000 Everblades Parkw Estero FL 33928,26.44056,-81.77887
,16760 Bass Rd Fort Myers FL 33908,26.49755,-81.91364
,15290 Bass Rd Fort Myers FL 33919,26.52243,-81.9123
,5770 Winkler Rd Fort Myers FL 33919,26.56482,-81.89895
,11381 Gateway Blvd Fort Myers FL 33913,26.57796,-81.74935
,12941 Express Ct Fort Myers FL 33913,26.55997,-81.74456
,215 N Richmond Ave Lehigh Acres FL 33936,26.60916,-81.62539
,6025 Estero Blvd Fort Myers Beach FL 33931,26.42631,-81.90761
,100 Chapel St Fort Myers Beach FL 33931,26.44914,-81.94304
,15840 McGregor Blvd Fort Myers FL 33908,26.51211,-81.95267
,5878 Daniels Pkwy Fort Myers FL 33912,26.54448,-81.85761
,15235 S Tamiami Trail Fort Myers FL 33908,26.52291,-81.86768
,13411 Shire Lane Fort Myers FL 33912,26.54935,-81.81817
,2213 Country Club Blvd Cape Coral FL 33990,26.61006,-81.95591
,4307 Skyline Blvd Cape Coral FL 33914,26.57164,-81.98936
,923 SE 47Th Ter Cape Coral FL 33904,26.56404,-81.95285
,702 SE 24Th Ave Cape Coral FL 33990,26.63949,-81.92479
,2507 Del Prado Blvd Cape Coral FL 33904,26.60489,-81.94074
,2620 Country Club Blvd Cape Coral FL 33904,26.60312,-81.95698
,519 Chiquita Blvd N Cape Coral FL 33993,26.66195,-82.00632
,1813 El Dorado Pkwy W Cape Coral FL 33914,26.5496,-82.01189
,921 SW 39Th Ter Cape Coral FL 33914,26.57996,-81.99498
,1039 SE 9Th Ave Cape Coral FL 33990,26.63239,-81.95603
,1922 SW 20Th Ave Cape Coral FL 33991,26.61649,-82.01721
,400 Santa Barbara Blvd Cape Coral FL 33991,26.64255,-81.97517
,360 Santa Barbara Blvd Cape Coral FL 33991,26.64313,-81.97521
,121 Del Prado Blvd Cape Coral FL 33990,26.6493,-81.94065
,1740 Periwinkle Way Sanibel FL 33957,26.44165,-82.06012
,6211 Briarcliff Rd Fort Myers FL 33912,26.51796,-81.85236
,21100 Three Oaks Pkwy Estero FL 33928,26.43357,-81.78933
,22100 S Tamiami Trl Estero FL 33928,26.41803,-81.81296
