Unnamed: 0,name,address,lat,lon
1,,24648 Ann St. FL 32102-3125,29.16137,-81.53129
2,,42226 SR 19 FL 32702-9656,28.96461,-81.64904
3,,24954 CR 42 FL 32767-9422,28.98274,-81.54223
4,,29245 SR 44 FL 32736-8113,28.88896,-81.47135
5,,24125 SR 46 FL 32776,28.80841,-81.55754
6,,601 Northshore Dr. FL 32726-2961,28.85858,-81.68628
7,,1 S Central Ave. FL 32784-9549,28.92639,-81.66878
8,,13229 CR 44 FL 32735-9654,28.88335,-81.73639
9,,36033 Emeralda Ave. FL 34788-2547,28.87458,-81.78349
10,,109 E. Dixie Ave. FL 34748-6372,28.80638,-81.87455
11,,237 W Guava St. FL 32159-3735,28.91827,-81.92613
12,,27150 Haywood Worm Farm Rd FL 34762-3232,28.74353,-81.88588
13,,5640 CR 48 FL 34762,28.75113,-81.86113
14,,121 N Sunset Ave. FL 34753-9702,28.5796,-81.88795
15,,691 W Montrose St. FL 34711-2119,28.55495,-81.76658
16,,17436 Division St. FL 34756,28.60027,-81.67329
17,,25019 CR 561 FL 34705-9513,28.71093,-81.73376
18,,16024 CR 448 FL 32778-9796,28.74616,-81.69088
19,,610 N. Barrow FL 32778-2610,28.80751,-81.73206
20,,411 S Tremain St. FL 32757-6056,28.79271,-81.64302
21,,525 N. Georgia Ave. FL 34737,28.71651,-81.77882
22,,800 N. US Hwy 27 FL 34715-6821,28.58861,-81.75298
23,,243 S Lake Ave. FL 34736-2539,28.55944,-81.85666
24,,15303 Ferndale Community Rd. FL 34729,28.6238,-81.70127
25,,604 W Berckman St. FL 34731-3241,28.85822,-81.91382
26,,300 N 3rd St. FL 34748-5108,28.81291,-81.87626
27,,2005 Johns Ave. FL 34748-4223,28.82099,-81.89549
28,,1703 Lewis Rd. FL 34748-9609,28.83725,-81.92505
29,,1512 W SR 44 FL 34748-8705,28.81133,-81.92845
30,,10200 Morningside Dr. FL 34788-3685,28.83661,-81.78768
31,,18440 US Hwy 441 FL 32757-6707,28.82341,-81.65239
32,,19650 State Road 44 FL 32736-2103,28.85058,-81.63121
33,,16311 Whistling Pines Rd. FL 32784,28.8988,-81.68572
34,,33110 CR 473 FL 34788-4258,28.83049,-81.77292
35,,3601 W Old Hwy 441 FL 32757-5300,28.80641,-81.68085
36,,100 Hawthorne Blvd. FL 34748-8639,28.75804,-81.87781
37,,2500 S. US Hwy 27 FL 34711-6820,28.53418,-81.73802
38,,201 E Main St. FL 32778-3807,28.80245,-81.72669
39,,1050 Boyd Dr. FL 32757-4551,28.80511,-81.68025
40,,20260 US Hwy 27 FL 34715,28.64235,-81.79579
41,,1951 Woodlea Rd. FL 32778-4204,28.78881,-81.74819
42,,1511 E Orange Ave. FL 32726-4323,28.8534,-81.66968
43,,2001 Kurt St. FL 32726-6164,28.83417,-81.69047
44,,335 Tomato Hill Rd. FL 32748-9163,28.80933,-81.83956
45,,33399 Waterview Ln FL 34788-7500,28.83266,-81.83132
46,,11043 True Life Way FL 34711-8604,28.53664,-81.71305
47,,1150 Skyline Dr. FL 32778-2507,28.81218,-81.71874
48,,109 W. McClendon St. FL 32159,28.91683,-81.92165
49,,"2100 Dr. M.L. King, Jr. Blvd. FL 34748-7200",28.84184,-81.90103
50,,1045 Great Lakes Blvd. FL 32735-9769,28.93367,-81.76777
51,,3700 S. US Hwy 27 FL 34711,28.51163,-81.72759
52,,47544 SR 19 FL 32702-9532,29.04165,-81.63953
53,,31039 Lake Mack Rd. FL 32720-5629,28.99276,-81.44028
54,,1234 Wells Ave. FL 32778-4127,28.79789,-81.73926
55,,3601 W. Burleigh Blvd. FL 32778-5803,28.81558,-81.76533
56,,803 Florida Ave. FL 32757-3905,28.80898,-81.63731
57,,1000 E 1st Ave. FL 32757-5710,28.79614,-81.63545
58,,34030 Radio Rd. FL 34788,28.84563,-81.7875
59,,10701 US Hwy 441 FL 34788-7228,28.82095,-81.78007
60,,25201 U.S. Hwy 27 FL 34748-9088,28.71223,-81.8733
61,,17107 Ball Park Rd. FL 32784-9533,28.91506,-81.67291
62,,199 Forest Dr. FL 34788-2648,28.87288,-81.77344
63,,110 S. Lake St. FL 34748-7300,28.81043,-81.86661
64,,1403 Paradise Dr. FL 32159-2152,28.94814,-81.95074
65,,460 N. Grandview St. FL 32757-5676,28.80027,-81.64011
66,,3740 Eagles Nest Rd. FL 34731-5405,28.88655,-81.89069
67,,200 Richey Rd. FL 34748-9728,28.8118,-81.9117
68,,2612 Vindale Rd. FL 32778-4581,28.81353,-81.7555
69,,1 Scottish Highlands Blvd. FL 34788-8554,28.85058,-81.77493
70,,6234 CR 561 FL 34714-8434,28.43793,-81.80215
71,,1200 Avenida Central FL 32159-5702,28.94372,-81.95246
72,,5500 Clubhouse Dr. FL 34748-8042,28.73394,-81.86247
73,,33825 Pennbrooke Pkwy. FL 34748,28.83094,-81.94316
74,,331 Raintree Dr. FL 32702-9609,28.96601,-81.65453
75,,821 Lake Port Blvd. FL 34748-7675,28.80275,-81.86103
76,,1900 Kings Ridge Blvd. FL 34711-6932,28.51263,-81.72114
77,,1601 John's Lake Rd. FL 34711-6655,28.52521,-81.72742
78,,446 S. Main Ave. FL 34736-2558,28.55774,-81.8575
79,,18237 E. Apshawa Rd. FL 34715-9261,28.61285,-81.76631
80,,16729 Cagan Oaks FL 34714-6503,28.35616,-81.67875
81,,21505 Royal St. Georges Lane FL 34748-7953,28.65849,-81.86593
82,,106 Evergreen Lane FL 32159-3293,28.92981,-81.91938
83,,1900 Country Club Blvd. FL 32757-6904,28.82824,-81.62469
84,,1690 Legendary Blvd. FL 34711-5385,28.50468,-81.72494
85,,574 W. Montrose St. FL 34711-2261,28.5555,-81.76465
86,,3195 Heritage Hills Blvd. FL 34711,28.51411,-81.68641
87,,15333 CR 455 FL 34756-3700,28.57025,-81.6897
88,,23813 CR 44A FL 32736-9372,28.93591,-81.42559
89,,32441 CR 437 FL 32776-8133,28.82166,-81.55365
90,,31205 Round Lake Rd. FL 32757-9599,28.80341,-81.59397
91,,6538 Lake Griffin Rd. FL 32159,28.92993,-81.85556
92,,2525 Oakley Seaver Dr. FL 34711,28.5523,-81.70885
93,,445 Waterman Ave. FL 32757-9518,28.82153,-81.64826
94,,5950 Royal Harbor Blvd. FL 32778-9270,28.74787,-81.76222
95,,31605 Orange St. FL 32776,28.80911,-81.56868
96,,3640 Westover Cir. FL 34748-1864,28.72394,-81.88916
97,,1190 Summit Greens Blvd. FL 34711,28.55218,-81.70518
98,,5365 Legacy Blvd. FL 34748-9130,28.74024,-81.86518
