Unnamed: 0,name,address,lat,lon
1,,2500 Palm Coast Pkwy NW Palm Coast FL 32137,29.55417,-81.23817
2,,5435 N Belle Terre Pkwy Palm Coast FL 32137,29.56999,-81.25127
3,,5545 N Belle Terre Pkwy Palm Coast FL 32137,29.58348,-81.25842
4,,47 N Old Kings Rd Palm Coast FL 32137,29.56463,-81.22442
5,,3535 N Old Kings Rd Palm Coast FL 32137,29.60085,-81.23598
6,,305 Palm Coast Pkwy NE Palm Coast FL 32137,29.55818,-81.20323
7,,5633 N Ocean Shore Blvd Palm Coast FL 32137,29.60793,-81.1992
8,,2000 Waterside Pkwy Palm Coast FL 32137,29.5373,-81.16868
9,,105 S 2nd St Flagler Beach FL 32136,29.47988,-81.12756
10,,1520 S Daytona Ave Flagler Beach FL 32136,29.46752,-81.12379
11,,301 Old Kings Rd S Flagler Beach FL 32136,29.47297,-81.17509
12,,200 S Church St Bunnell FL 32110,29.46579,-81.25555
13,,89 County Rd 2006 E Bunnell FL 32110,29.42413,-81.36984
14,,230 S Old Dixie Rd Bunnell FL 32110,29.40476,-81.19301
15,,201 Airport Rd Palm Coast FL 32164,29.47225,-81.20752
16,,4101 E Moody Blvd Bunnell FL 32110,29.47486,-81.22869
17,,5400 E Highway 100 Palm Coast FL 32164,29.47613,-81.2113
18,,1425 Rymfire Dr Palm Coast FL 32164,29.50148,-81.25257
19,,4422 US Highway 1 N Palm Coast FL 32164,29.52588,-81.26184
20,,94 Whiteview Pkwy Palm Coast FL 32164,29.52286,-81.2524
21,,4500 Belle Terre Pkwy Palm Coast FL 32164,29.52944,-81.224
22,,4550 N Belle Terre Pkwy Palm Coast FL 32164,29.53231,-81.224
23,,73 Patricia Dr Palm Coast FL 32164,29.53889,-81.22106
24,,101 Pine Lakes Pkwy Palm Coast FL 32164,29.54077,-81.25626
