Unnamed: 0,name,address,lat,lon
1,,50 Colony Rd Jupiter Inlet Colony FL 33469,26.95209,-80.07577
2,,777 N U S Hwy 1 Jupiter FL 33477,26.93989,-80.08322
3,,815 E Indiantown Rd Jupiter FL 33477,26.93441,-80.07761
4,,17475 Jonathan Dr Jupiter FL 33477,26.9333,-80.09001
5,,200 Admirals Cove Blvd Jupiter FL 33477,26.90897,-80.08574
6,,112 Newhaven Blvd Jupiter FL 33458,26.8964,-80.09919
7,,701 Ocean Dr Juno Beach FL 33408,26.87735,-80.0538
8,,13301 Ellison Wilson Rd Juno Beach FL 33408,26.87177,-80.06432
9,,14000 Caloosa Blvd Palm Beach Gardens FL 33418,26.88479,-80.24466
10,,11300 Mirasol Way Palm Beach Gardens FL 33418,26.85092,-80.1331
11,,13601 N Military Trl Palm Beach Gardens FL 33418,26.87707,-80.10631
12,,13560 Eastpointe Blvd Palm Beach Gardens FL 33418,26.87617,-80.13402
13,,5601 Golden Eagle Cir Palm Beach Gardens FL 33418,26.86299,-80.12319
14,,4677 Hood Rd Palm Beach Gardens FL 33418,26.86509,-80.10787
15,,650 Evergrene Pkwy Palm Beach Gardens FL 33410,26.87165,-80.09987
16,,13699 Tournament Dr Palm Beach Gardens FL 33410,26.88257,-80.08712
17,,11980 Alt A1A Palm Beach Gardens FL 33410,26.8531,-80.09571
18,,2926 Lone Pine Rd Palm Beach Gardens FL 33410,26.85393,-80.0773
19,,2575 Lone Pine Rd Palm Beach Gardens FL 33410,26.85506,-80.07365
20,,340 Ocean Dr Juno Beach FL 33408,26.87176,-80.05196
21,,6775 180th Ave N Loxahatchee FL 33470,26.77684,-80.32897
22,,14255 Hamlin Blvd Loxahatchee FL 33470,26.81074,-80.26524
23,,11401 Northlake Blvd Palm Beach Gardens FL 33412,26.81857,-80.21877
24,,8800 Oldham Way Palm Beach Gardens FL 33412,26.81331,-80.21086
25,,5343 Northlake Blvd Palm Beach Gardens FL 33418,26.81192,-80.11983
26,,5200 117th Ct N Palm Beach Gardens FL 33418,26.84787,-80.11808
27,,5150 117th Ct N Palm Beach Gardens FL 33418,26.84806,-80.11564
28,,4404 Burns Rd Palm Beach Gardens FL 33410,26.82955,-80.10295
29,,4245 Holly Dr Palm Beach Gardens FL 33410,26.82573,-80.10115
30,,100 Ballen Isles Cir Palm Beach Gardens FL 33418,26.83212,-80.11668
31,,5430 Northlake Blvd Palm Beach Gardens FL 33418,26.80878,-80.12148
32,,5217 Northlake Blvd Palm Beach Gardens FL 33418,26.81025,-80.11794
33,,10500 N Military Trl Palm Beach Gardens FL 33410,26.83282,-80.10491
34,,3600 RCA Blvd Palm Beach Gardens FL 33410,26.8368,-80.0894
35,,10060 Riverside Dr Palm Beach Gardens FL 33410,26.82404,-80.09016
36,,9463 Roan Ln Palm Beach Gardens FL 33403,26.81555,-80.09618
37,,9482 MacArthur Blvd Palm Beach Gardens FL 33403,26.81614,-80.08536
38,,11051 Campus Dr Palm Beach Gardens FL 33410,26.84046,-80.08396
39,,1200 Prosperity Farms Rd North Palm Beach FL 33408,26.83269,-80.07191
40,,3101 PGA Blvd Palm Beach Gardens FL 33410,26.84842,-80.08383
41,,10300 Allamanda Dr Palm Beach Gardens FL 33410,26.82816,-80.07619
42,,715 Prosperity Farms Rd North Palm Beach FL 33408,26.8183,-80.07343
43,,635 Prosperity Farms Rd North Palm Beach FL 33408,26.81557,-80.07397
44,,951 U S Hwy 1 North Palm Beach FL 33408,26.81785,-80.05801
45,,132 Lakeshore Dr North Palm Beach FL 33408,26.83433,-80.05754
46,,603 Anchorage Dr North Palm Beach FL 33408,26.81313,-80.0658
47,,501 U S Hwy 1 North Palm Beach FL 33408,26.81083,-80.05667
48,,555 U S Hwy 1 North Palm Beach FL 33408,26.81303,-80.05778
49,,8330 N Military Trl Palm Beach Gardens FL 33410,26.79911,-80.10573
50,,3000 Casa Rio Ct Riviera Beach FL 33418,26.79267,-80.11261
51,,7071 Garden Rd Riviera Beach FL 33404,26.78041,-80.09295
52,,4049 70th Ct N Riviera Beach FL 33404,26.78019,-80.10054
53,,535 Park Ave Lake Park FL 33403,26.79895,-80.06356
54,,1000 Park Ave Lake Park FL 33403,26.79855,-80.07292
55,,900 E Blue Heron Blvd Riviera Beach FL 33404,26.78405,-80.04199
56,,247 Edwards Ln Palm Beach Shores FL 33404,26.77854,-80.03712
57,,165 N County Road Palm Beach FL 33480,26.72089,-80.03749
58,,340 Seaview Ave Palm Beach FL 33480,26.70655,-80.03866
59,,3777 N Jog Rd West Palm Beach FL 33411,26.73446,-80.13797
60,,3550 N Jog Rd West Palm Beach FL 33411,26.73014,-80.13736
61,,3445 Cypress Trl West Palm Beach FL 33417,26.73212,-80.1241
62,,200 Century Blvd West Palm Beach FL 33417,26.71523,-80.12609
63,,5200 Baywinds Dr West Palm Beach FL 33411,26.71262,-80.19172
64,,2400 Victoria Point West Palm Beach FL 33411,26.71516,-80.17632
65,,7459 Riverwalk Cir West Palm Beach FL 33411,26.7137,-80.15952
66,,1765 Benoist Farms Rd West Palm Beach FL 33411,26.70578,-80.17112
67,,1950 Benoist Farms Rd West Palm Beach FL 33411,26.70778,-80.16832
68,,1167 Drexel Rd West Palm Beach FL 33417,26.69486,-80.13645
69,,1063 Haverhill Rd N West Palm Beach FL 33417,26.69263,-80.12039
70,,4585 Charlotte St Haverhill FL 33417,26.6931,-80.11386
71,,6188 Belvedere Rd West Palm Beach FL 33413,26.69172,-80.14068
72,,559 N Military Trl West Palm Beach FL 33415,26.68602,-80.11537
73,,1545 Loxahatchee Dr West Palm Beach FL 33409,26.70062,-80.0919
74,,3000 Parker Ave West Palm Beach FL 33405,26.68688,-80.06162
75,,1302 Parker Ave West Palm Beach FL 33401,26.70138,-80.06087
76,,1003 Allendale Rd West Palm Beach FL 33405,26.68712,-80.06524
77,,110 Southern Blvd West Palm Beach FL 33405,26.67524,-80.04926
78,,407 Marginal Rd West Palm Beach FL 33411,26.67125,-80.17922
79,,6301 Summit Blvd West Palm Beach FL 33415,26.66372,-80.14199
80,,521 Jog Rd West Palm Beach FL 33415,26.67079,-80.14661
81,,5759 W Gun Club Rd West Palm Beach FL 33415,26.6754,-80.13274
82,,5601 Forest Hill Blvd West Palm Beach FL 33415,26.6525,-80.12929
83,,588 S Haverhill Rd West Palm Beach FL 33415,26.6687,-80.11904
84,,5088 Summit Blvd West Palm Beach FL 33415,26.66257,-80.12189
85,,3645 Gun Club Rd West Palm Beach FL 33406,26.67504,-80.0993
86,,3650 Summit Blvd West Palm Beach FL 33406,26.66269,-80.09859
87,,1060 S Kirk Rd West Palm Beach FL 33406,26.66156,-80.10299
88,,1560 Kirk Rd West Palm Beach FL 33406,26.65343,-80.10318
89,,3218 Melaleuca Dr West Palm Beach FL 33406,26.65517,-80.09186
90,,1317 Florida Mango Rd West Palm Beach FL 33406,26.65731,-80.08069
91,,1701 Barbados Rd Lake Clarke Shores FL 33406,26.65007,-80.07706
92,,100 Lang Rd Cloud Lake FL 33406,26.67553,-80.07434
93,,4801 Dreher Trl N West Palm Beach FL 33405,26.66925,-80.06964
94,,845 Bradley St West Palm Beach FL 33405,26.67124,-80.06264
95,,345 Summa St West Palm Beach FL 33405,26.65164,-80.05451
96,,4601 S Flagler Dr West Palm Beach FL 33405,26.67099,-80.04838
97,,2500 Village Walk Cir Wellington FL 33414,26.6412,-80.18196
98,,6601 Constitution Way Greenacres FL 33413,26.63335,-80.1517
99,,100 River Bridge Blvd Greenacres FL 33413,26.64804,-80.14956
100,,600 Sea Pine Way Greenacres FL 33415,26.63924,-80.1399
101,,5555 Purdy Ln West Palm Beach FL 33415,26.64603,-80.12995
102,,2530 Emory Dr E West Palm Beach FL 33415,26.63933,-80.1313
103,,2341 S Military Trl West Palm Beach FL 33415,26.64272,-80.11389
104,,2605 Barkley Dr E West Palm Beach FL 33415,26.6394,-80.1231
105,,2885 Ashley Dr E West Palm Beach FL 33415,26.63511,-80.11874
106,,7290 Covered Bridge Blvd Lake Worth FL 33467,26.62197,-80.16181
107,,3536 Via Poinciana Lake Worth FL 33467,26.62438,-80.15394
108,,201 Swain Blvd Greenacres FL 33463,26.62152,-80.12554
109,,501 Swain Blvd Greenacres FL 33463,26.62988,-80.12602
110,,4725 Lake Worth Rd Greenacres FL 33463,26.6192,-80.11717
111,,165 Ohio Rd Lake Worth FL 33467,26.61069,-80.16399
112,,4580 Lucerne Lakes Blvd Lake Worth FL 33467,26.60849,-80.16301
113,,4615 Fountains Dr Lake Worth FL 33467,26.60963,-80.15301
114,,5332 Lake Worth Rd Greenacres FL 33463,26.61673,-80.12797
115,,400 Pine Glen Ln Greenacres FL 33463,26.60596,-80.1421
116,,908 Lehto Ln Lake Worth FL 33461,26.60828,-80.10827
117,,5100 Melaleuca Ln Greenacres FL 33463,26.60624,-80.12365
118,,6000 Oak Royal Dr Lake Worth FL 33463,26.59104,-80.13941
119,,5090 Haverhill Rd S Greenacres FL 33463,26.57904,-80.12136
120,,275 Alemeda Dr Palm Springs FL 33461,26.64236,-80.09443
121,,1901 Barbados Rd West Palm Beach FL 33406,26.65019,-80.07929
122,,226 Cypress Ln Palm Springs FL 33461,26.64055,-80.09518
123,,2835 Gulfstream Rd Lake Worth FL 33461,26.6345,-80.10128
124,,217 Cypress Ln Palm Springs FL 33461,26.64081,-80.09596
125,,2728 Lake Worth Rd Lake Worth FL 33461,26.61606,-80.08464
126,,1325 N A St Lake Worth Beach FL 33460,26.63259,-80.06489
127,,1415 N K St Lake Worth Beach FL 33460,26.63299,-80.05493
128,,3730 Kirk Rd Palm Springs FL 33461,26.6222,-80.10399
129,,1615 Lake Ave Lake Worth Beach FL 33460,26.6153,-80.06457
130,,100 N Palmway Lake Worth Beach FL 33460,26.61665,-80.05009
131,,3680 Lake Worth Rd Lake Worth FL 33461,26.6173,-80.10041
132,,1510 High Ridge Rd Lake Worth FL 33461,26.59596,-80.07292
133,,418 S Dixie Hwy Lantana FL 33462,26.58125,-80.05179
134,,1901 12Th Ave S Lake Worth Beach FL 33461,26.60141,-80.07066
135,,260 Orange Tree Dr Atlantis FL 33462,26.5951,-80.09717
136,,8130 Havasu Ct Lake Worth FL 33467,26.59531,-80.17713
137,,5200 Lyons Rd Lake Worth FL 33467,26.60118,-80.18875
138,,6410 Grand Lacuna Blvd Lake Worth FL 33467,26.58455,-80.17876
139,,6151 Hagen Ranch Rd Lake Worth FL 33467,26.58566,-80.15858
140,,7001 Charleston Shore Blvd Lake Worth FL 33467,26.57156,-80.15132
141,,6400 Journeys End Blvd Lake Worth FL 33467,26.58106,-80.14762
142,,5300 Haverhill Rd Greenacres FL 33463,26.59838,-80.12115
143,,5111 Lantana Rd Lake Worth FL 33463,26.59108,-80.12646
144,,6880 Lawrence Rd Lantana FL 33462,26.57419,-80.1025
145,,4020 Lantana Rd Lake Worth FL 33462,26.58791,-80.10578
146,,6300 Seminole Dr Lantana FL 33462,26.58267,-80.09993
147,,2116 W Lantana Rd Lantana FL 33462,26.58726,-80.07251
148,,7751 Valencia Shores Dr Lake Worth FL 33467,26.56136,-80.17956
149,,9515 Boynton Beach Blvd Boynton Beach FL 33472,26.52818,-80.19743
150,,6000 Northtree Blvd Lake Worth FL 33463,26.55998,-80.14111
151,,9085 Hagen Ranch Rd Boynton Beach FL 33472,26.54203,-80.16475
152,,5980 Winston Trails Blvd Lake Worth FL 33463,26.57454,-80.13943
153,,7900 Jog Rd Lake Worth FL 33467,26.55851,-80.14555
154,,6500 Le Chalet Blvd Boynton Beach FL 33472,26.55158,-80.14768
155,,7685 S Military Trl Lake Worth FL 33463,26.56122,-80.11669
156,,3400 Hypoluxo Rd Boynton Beach FL 33436,26.56999,-80.09561
157,,8400 Lawrence Rd Boynton Beach FL 33436,26.55086,-80.10412
158,,100 Redford Dr Boynton Beach FL 33426,26.56621,-80.08795
159,,3333 High Ridge Rd Boynton Beach FL 33426,26.56195,-80.07562
160,,7050 Catania Dr Boynton Beach FL 33472,26.54072,-80.15625
161,,5700 Le Chalet Blvd Boynton Beach FL 33472,26.55169,-80.13398
162,,6050 Gateway Blvd Boynton Beach FL 33437,26.54356,-80.1403
163,,31005 Jamaica Bay Dr Boynton Beach FL 33436,26.54312,-80.12229
164,,3501 N Congress Ave Boynton Beach FL 33426,26.55669,-80.0916
165,,4975 Park Ridge Blvd Boynton Beach FL 33426,26.54117,-80.08392
166,,801 N Congress Ave Boynton Beach FL 33426,26.53568,-80.09574
167,,1007 Ocean Dr Boynton Beach FL 33426,26.52465,-80.08339
168,,2615 W Woolbright Rd Boynton Beach FL 33436,26.51354,-80.09282
169,,2001 SW 13th Ave Boynton Beach FL 33426,26.51728,-80.08436
170,,1807 SW 18Th St Boynton Beach FL 33426,26.51088,-80.08444
171,,2775 SW 14Th St Boynton Beach FL 33426,26.50203,-80.08826
172,,3577 S Ocean Blvd South Palm Beach FL 33480,26.58933,-80.03956
173,,600 S Ocean Blvd Manalapan FL 33462,26.57989,-80.03894
174,,7580 S Federal Hwy Hypoluxo FL 33462,26.56352,-80.05347
175,,4450 Pear Tree Cir Boynton Beach FL 33436,26.52984,-80.11145
176,,4685 Greentree Ln Boynton Beach FL 33436,26.52605,-80.11825
177,,10621 El Clair Ranch Rd Boynton Beach FL 33437,26.51895,-80.13981
178,,3715 Golf Rd Boynton Beach FL 33436,26.50669,-80.10137
179,,101 S Congress Ave Boynton Beach FL 33426,26.52304,-80.09254
180,,2010 N Federal Hwy Boynton Beach FL 33435,26.5461,-80.05437
181,,500 S Federal Hwy Boynton Beach FL 33435,26.52302,-80.05559
182,,6450 N Ocean Blvd Ocean Ridge FL 33435,26.52934,-80.04882
183,,21 Country Rd Village Of Golf FL 33436,26.50582,-80.10515
184,,3015 S Congress Ave Boynton Beach FL 33426,26.50025,-80.09213
185,,1201 SW 3rd St Boynton Beach FL 33435,26.51725,-80.07087
186,,5000 N Ocean Blvd Briny Breezes FL 33435,26.50858,-80.05382
187,,12005 Dunes Rd Boynton Beach FL 33436,26.49834,-80.11625
188,,4243 Sabal Lakes Rd Delray Beach FL 33445,26.48139,-80.1125
189,,3500 Clubhouse Ln Boynton Beach FL 33436,26.49161,-80.10286
190,,2599 N Swinton Ave Delray Beach FL 33444,26.49076,-80.07353
191,,2501 Seacrest Blvd Delray Beach FL 33444,26.48786,-80.06921
192,,2703 N Seacrest Blvd Delray Beach FL 33444,26.49087,-80.0706
193,,100 Sea Rd Gulf Stream FL 33483,26.5006,-80.05417
194,,4900 Country Manors Blvd Delray Beach FL 33445,26.47473,-80.1184
195,,4004 Lake Ida Rd Delray Beach FL 33445,26.47234,-80.11027
196,,1641 NW 18Th Ave Delray Beach FL 33445,26.47894,-80.09042
197,,901 NW 3Rd St Delray Beach FL 33444,26.46835,-80.08248
198,,101 Barwick Rd Delray Beach FL 33445,26.45975,-80.11273
199,,5780 W Atlantic Ave Delray Beach FL 33484,26.4554,-80.13501
200,,802 NE 1St St Delray Beach FL 33483,26.46318,-80.06458
201,,15700 S Military Trl Delray Beach FL 33484,26.44466,-80.12222
202,,2200 Highland Ave Delray Beach FL 33445,26.45168,-80.09755
203,,2451 Black Olive Blvd Delray Beach FL 33445,26.44217,-80.09958
204,,505 SE 5th Ave Delray Beach FL 33483,26.45342,-80.06753
205,,16333 S Military Trl Delray Beach FL 33484,26.43363,-80.12301
206,,4050 Germantown Rd Delray Beach FL 33445,26.43565,-80.11432
207,,700 Lindell Blvd Delray Beach FL 33444,26.43052,-80.08246
208,,400 SW 10th St Delray Beach FL 33444,26.44657,-80.07751
209,,3510 S Ocean Blvd Highland Beach FL 33487,26.41261,-80.0662
210,,5775 Jog Rd Boca Raton FL 33496,26.39976,-80.14755
211,,2051 Clint Moore Rd Boca Raton FL 33496,26.40808,-80.12777
212,,7500 E Country Club Blvd Boca Raton FL 33487,26.41698,-80.08051
213,,7250 N Federal Hwy Boca Raton FL 33487,26.41423,-80.07436
214,,2401 Willow Springs Dr Boca Raton FL 33496,26.39535,-80.13632
215,,3630 Club Pl Boca Raton FL 33496,26.40147,-80.16045
216,,6450 NW 30th Ave Boca Raton FL 33496,26.40654,-80.147
217,,2000 Yamato Rd Boca Raton FL 33431,26.39287,-80.12837
218,,4093 NW 4th Ave Boca Raton FL 33431,26.3874,-80.09203
219,,5100 Jog Rd Boca Raton FL 33496,26.39825,-80.14455
220,,2350 Yamato Rd Boca Raton FL 33431,26.39304,-80.13337
221,,1790 NW Spanish River Blvd Boca Raton FL 33431,26.38593,-80.11891
222,,777 Glades Rd Boca Raton FL 33431,26.36931,-80.10585
223,,2470 NW 5th Ave Boca Raton FL 33431,26.3735,-80.09234
224,,1501 Spanish River Blvd Boca Raton FL 33431,26.38782,-80.11451
225,,3939 N Ocean Blvd Boca Raton FL 33431,26.38541,-80.06773
226,,300 S Military Trl Boca Raton FL 33486,26.34507,-80.12651
227,,7900 Del Prado Cir Boca Raton FL 33433,26.35477,-80.16719
228,,21618 St Andrews Blvd Boca Raton FL 33433,26.35669,-80.13488
229,,1251 NW 8th St Boca Raton FL 33486,26.35921,-80.11303
230,,1515 W Palmetto Park Rd Boca Raton FL 33486,26.35312,-80.11609
231,,1395 N Federal Hwy Boca Raton FL 33432,26.36322,-80.08194
232,,100 NE Mizner Blvd Boca Raton FL 33432,26.35174,-80.08322
233,,6590 Verde Trl Boca Raton FL 33433,26.36245,-80.1432
234,,6301 SW 18Th St Boca Raton FL 33433,26.33238,-80.14238
235,,8400 SW 8th St Boca Raton FL 33433,26.33831,-80.17748
236,,2 SW 12Th Ave Boca Raton FL 33486,26.3497,-80.11045
237,,1551 W Camino Real Boca Raton FL 33486,26.34472,-80.11695
238,,600 W Camino Real Boca Raton FL 33486,26.34345,-80.09862
239,,150 Crawford Blvd Boca Raton FL 33432,26.35182,-80.09099
240,,400 NW 2nd Ave Boca Raton FL 33432,26.3544,-80.08928
241,,9538 U S Hwy 441 Boynton Beach FL 33472,26.53444,-80.20441
242,,8650 Boynton Beach Blvd Boynton Beach FL 33472,26.5263,-80.18204
243,,9697 Orchid Grove Trl Boynton Beach FL 33437,26.53241,-80.1688
244,,9451 Jog Rd Boynton Beach FL 33437,26.53658,-80.14838
245,,6340 W Boynton Beach Blvd Boynton Beach FL 33437,26.52726,-80.14487
246,,9640 Platina Ave Boynton Beach FL 33437,26.53311,-80.12764
247,,10565 Hagen Ranch Rd Boynton Beach FL 33437,26.51795,-80.16498
248,,11600 Valencia Lakes Blvd Boynton Beach FL 33437,26.50353,-80.17034
249,,6161 Woolbright Rd Boynton Beach FL 33437,26.51432,-80.14191
250,,11200 Valencia Isles Blvd Boynton Beach FL 33437,26.50891,-80.15812
251,,6601 Cascades Isle Blvd Boynton Beach FL 33437,26.5032,-80.14989
252,,5075 Cascade Lakes Blvd Boynton Beach FL 33437,26.5025,-80.12751
253,,12751 Hagen Ranch Rd Boynton Beach FL 33437,26.48737,-80.16712
254,,12751 El Clair Ranch Rd Boynton Beach FL 33437,26.48748,-80.14046
255,,13081 S Military Trl Delray Beach FL 33484,26.48294,-80.12436
256,,9600 W Atlantic Ave Delray Beach FL 33446,26.45302,-80.19832
257,,14350 Hagen Ranch Rd Delray Beach FL 33446,26.46367,-80.16091
258,,13375 Valencia Grand Blvd Delray Beach FL 33446,26.47783,-80.15652
259,,6750 Via Villa Borghe Delray Beach FL 33446,26.47006,-80.15336
260,,7355 Huntington Ln Delray Beach FL 33446,26.46458,-80.15805
261,,6294 Abbey Ln Delray Beach FL 33446,26.45785,-80.15398
262,,6610 Moonlit Dr Delray Beach FL 33446,26.45601,-80.14965
263,,13773 Circular Dr Delray Beach FL 33484,26.47172,-80.14015
264,,6251 N Oriole Blvd Delray Beach FL 33484,26.46547,-80.14333
265,,6269 W Atlantic Ave Delray Beach FL 33484,26.45484,-80.14334
266,,5801 Via Delray Blvd Delray Beach FL 33484,26.47701,-80.13619
267,,14425 Canalview Dr Delray Beach FL 33484,26.46252,-80.12781
268,,15390 Strathearn Dr Delray Beach FL 33446,26.44805,-80.1613
269,,7332 Clunie Pl Delray Beach FL 33446,26.44305,-80.16198
270,,7000 W Atlantic Ave Delray Beach FL 33446,26.45242,-80.15132
271,,6570 Monaco Blvd Delray Beach FL 33446,26.44345,-80.14825
272,,15055 Lakes of Delray Blvd Delray Beach FL 33484,26.45092,-80.13623
273,,6561 Flanders Way Delray Beach FL 33484,26.44317,-80.13893
274,,5121 Las Verdes Cir Delray Beach FL 33484,26.44406,-80.12345
275,,18685 State Road 7 Boca Raton FL 33498,26.39865,-80.20521
276,,16700 Jog Rd Delray Beach FL 33446,26.42852,-80.14609
277,,6201 Morikami Park Rd Delray Beach FL 33484,26.42697,-80.14348
278,,5400 Champion Blvd Boca Raton FL 33496,26.4197,-80.12795
279,,5483 Boca Delray Blvd Delray Beach FL 33484,26.4273,-80.12903
280,,19400 Coral Ridge Dr Boca Raton FL 33498,26.3863,-80.22621
281,,20130 Regional Park Dr Boca Raton FL 33498,26.37671,-80.22481
282,,19500 Coral Ridge Dr Boca Raton FL 33498,26.38442,-80.22651
283,,9090 Spanish Isles Blvd Boca Raton FL 33496,26.40046,-80.18786
284,,20101 Lyons Rd Boca Raton FL 33434,26.37727,-80.18904
285,,8690 Flamingo Dr Boca Raton FL 33496,26.39985,-80.18137
286,,19296 Lyons Rd Boca Raton FL 33434,26.38789,-80.18596
287,,12811 Glades Rd Boca Raton FL 33498,26.3619,-80.24773
288,,11435 Park Access Rd Boca Raton FL 33498,26.37947,-80.22573
289,,19557 Lyons Rd Boca Raton FL 33434,26.38747,-80.18871
290,,20583 Boca West Dr Boca Raton FL 33434,26.38665,-80.16006
291,,21121 Judge Winikoff Rd Boca Raton FL 33428,26.36113,-80.22917
292,,11201 Glades Rd Boca Raton FL 33498,26.36849,-80.22202
293,,20701 95th Ave S Boca Raton FL 33434,26.3693,-80.19527
294,,21601 Shorewind Dr Boca Raton FL 33428,26.35457,-80.24947
295,,11584 W Palmetto Park Rd Boca Raton FL 33428,26.34715,-80.23039
296,,10101 Judge Winikoff Rd Boca Raton FL 33428,26.33978,-80.20481
297,,22400 Hammock St Boca Raton FL 33428,26.3431,-80.20991
298,,23380 Barwood Ln S Boca Raton FL 33428,26.32843,-80.19579
299,,8170 Boca Rio Dr Boca Raton FL 33433,26.34128,-80.17785
300,,23270 Barlake Dr Boca Raton FL 33433,26.33075,-80.18101
301,,12860 U S Hwy 441 Canal Point FL 33438,26.86684,-80.62855
302,,360 E Main St Pahokee FL 33476,26.8246,-80.6623
303,,900 Larrimore Rd Pahokee FL 33476,26.82512,-80.65558
304,,725 NW 4th St Belle Glade FL 33430,26.69233,-80.67127
305,,335 SW 2nd Ave South Bay FL 33493,26.66129,-80.71343
306,,1001 SW Avenue M Belle Glade FL 33430,26.66615,-80.68436
307,,1224 SW Avenue E Belle Glade FL 33430,26.68205,-80.68068
308,,1000 SE Avenue G Belle Glade FL 33430,26.67655,-80.65919
309,,6701 180th Ave N Loxahatchee FL 33470,26.77417,-80.32853
310,,15801 Orange Blvd Loxahatchee FL 33470,26.78075,-80.29162
311,,13969 Orange Blvd West Palm Beach FL 33412,26.78117,-80.26136
312,,4601 Seminole Pratt Whitney Rd Westlake FL 33470,26.74605,-80.31008
313,,14200 Orange Blvd Loxahatchee FL 33470,26.77827,-80.26489
314,,13476 61st St N West Palm Beach FL 33412,26.76677,-80.25474
315,,9055 Ibis Blvd West Palm Beach FL 33412,26.81097,-80.20612
316,,8055 Ironhorse Blvd West Palm Beach FL 33412,26.79591,-80.14266
317,,5949 140th Ave N Westlake FL 33411,26.76204,-80.26649
318,,5959 140th Ave N Westlake FL 33411,26.76299,-80.26638
319,,16401 Southern Blvd Loxahatchee FL 33470,26.68466,-80.30486
320,,16020 Okeechobee Blvd Loxahatchee FL 33470,26.70453,-80.30036
321,,13689 Okeechobee Blvd Loxahatchee FL 33470,26.70715,-80.26059
322,,1000 Crestwood Blvd N Royal Palm Beach FL 33411,26.72919,-80.23004
323,,2003 Crestwood Blvd N Royal Palm Beach FL 33411,26.714,-80.23706
324,,100 Sweet Bay Ln Royal Palm Beach FL 33411,26.69752,-80.24006
325,,64 Sparrow Dr Royal Palm Beach FL 33411,26.69865,-80.23581
326,,151 Lamstein Ln Royal Palm Beach FL 33411,26.68515,-80.22285
327,,1050 Royal Palm Beach Blvd Royal Palm Beach FL 33411,26.70464,-80.2283
328,,500 Civic Center Way Royal Palm Beach FL 33411,26.70521,-80.23257
329,,10600 Okeechobee Blvd Royal Palm Beach FL 33411,26.70742,-80.21052
330,,151 Cultural Center Way Royal Palm Beach FL 33411,26.70407,-80.23011
331,,9905 Southern Blvd Royal Palm Beach FL 33411,26.68212,-80.20058
332,,15101 Bent Creek Rd Wellington FL 33414,26.68086,-80.28544
333,,1100 Aero Club Dr Wellington FL 33414,26.66551,-80.28656
334,,13000 Paddock Dr Wellington FL 33414,26.67316,-80.25827
335,,12700 Forest Hill Blvd Wellington FL 33414,26.66792,-80.24514
336,,12150 Forest Hill Blvd Wellington FL 33414,26.65526,-80.23695
337,,13900 Greenbriar Blvd Wellington FL 33414,26.64144,-80.2659
338,,2101 Greenview Shores Blvd Wellington FL 33414,26.65,-80.26628
339,,1915 Royal Fern Dr Wellington FL 33414,26.65445,-80.22589
340,,11700 Pierson Rd Wellington FL 33414,26.63479,-80.23075
341,,12300 Forest Hill Blvd Wellington FL 33414,26.65505,-80.23801
342,,12200 W Forest Hill Blvd Wellington FL 33414,26.65898,-80.23818
343,,9720 Stribling Way Wellington FL 33414,26.63316,-80.19914
344,,8499 W Forest Hill Blvd Wellington FL 33411,26.65269,-80.17844
345,,1951 Royal Fern Dr Wellington FL 33414,26.65223,-80.22577
346,,9950 Stribling Way Wellington FL 33414,26.63484,-80.20119
347,,1961 Via Buena Vida Wellington FL 33411,26.65217,-80.18993
348,,9100 Fatio Blvd Wellington FL 33414,26.64552,-80.1897
349,,10775 Lake Worth Rd Lake Worth FL 33467,26.6199,-80.21723
350,,3550 Lyons Rd Lake Worth FL 33467,26.62369,-80.18798
351,,4325 Isles Vista Blvd Wellington FL 33449,26.61692,-80.2279
352,,4150 Wycliffe Country Lake Worth FL 33449,26.61798,-80.2115
353,,4460 Lyons Rd Lake Worth FL 33467,26.61018,-80.18873
354,,1901 Avenue S Riviera Beach FL 33404,26.77958,-80.08204
355,,241 Cypress Dr Lake Park FL 33403,26.79479,-80.05834
356,,1617 Silver Beach Rd Riviera Beach FL 33404,26.79321,-80.08112
357,,1550 W 28th St Riviera Beach FL 33404,26.78631,-80.07885
358,,2409 Avenue H W Riviera Beach FL 33404,26.78228,-80.06449
359,,190 E 13th St Riviera Beach FL 33404,26.77414,-80.05288
360,,5710 N Haverhill Rd West Palm Beach FL 33407,26.76098,-80.11549
361,,1717 Avenue S Riviera Beach FL 33404,26.77804,-80.08192
362,,1501 Avenue U Riviera Beach FL 33404,26.77652,-80.08312
363,,1420 W 10th St Riviera Beach FL 33404,26.77243,-80.07654
364,,3505 Shiloh Dr West Palm Beach FL 33407,26.75554,-80.10587
365,,4011 Northshore Dr West Palm Beach FL 33407,26.75351,-80.06988
366,,1755 E Tiffany Dr Mangonia Park FL 33407,26.75555,-80.082
367,,3600 N Australian Ave West Palm Beach FL 33407,26.74554,-80.06916
368,,400 40th St West Palm Beach FL 33407,26.74873,-80.05297
369,,500 22nd St West Palm Beach FL 33407,26.73388,-80.05543
370,,5115 47th Pl N West Palm Beach FL 33417,26.74853,-80.11887
371,,4075 Willow Pond Rd West Palm Beach FL 33417,26.73727,-80.11564
372,,3443 N Haverhill Rd West Palm Beach FL 33417,26.72804,-80.11978
373,,3505 Shenandoah Blvd West Palm Beach FL 33409,26.73387,-80.10866
374,,2641 Village Blvd West Palm Beach FL 33409,26.73687,-80.09267
375,,2122 Palm Beach Lakes Blvd West Palm Beach FL 33409,26.71276,-80.09422
376,,900 Brandywine Rd West Palm Beach FL 33409,26.71566,-80.09592
377,,215 S Congress Ave West Palm Beach FL 33409,26.71304,-80.08494
378,,700 N Congress Ave West Palm Beach FL 33401,26.71902,-80.08086
379,,1220 15th St West Palm Beach FL 33401,26.7268,-80.06502
380,,401 N Flagler Dr West Palm Beach FL 33401,26.71663,-80.05098
381,,2161 N Military Trl West Palm Beach FL 33409,26.70915,-80.11232
382,,1101 Golf Ave West Palm Beach FL 33401,26.72334,-80.07262
383,,501 S Sapodilla Ave West Palm Beach FL 33401,26.70861,-80.05978
384,,401 Clematis St West Palm Beach FL 33401,26.71391,-80.05383
385,,3691 Oswego Ave West Palm Beach FL 33409,26.70081,-80.09731
386,,2185 S Ocean Blvd Palm Beach FL 33480,26.6413,-80.03955
387,,716 S K St Lake Worth Beach FL 33460,26.60678,-80.05498
388,,1699 Wingfield St Lake Worth Beach FL 33460,26.59486,-80.0586
389,,1200 W Drew St Lantana FL 33462,26.57925,-80.06319
390,,500 Greynolds Cir Lantana FL 33462,26.5765,-80.05546
391,,550 Miner Rd Boynton Beach FL 33435,26.55585,-80.06118
392,,501 NE 26th Ave Boynton Beach FL 33435,26.5544,-80.06214
393,,2501 NE 1st Ct Boynton Beach FL 33435,26.55191,-80.06354
394,,900 N Seacrest Blvd Boynton Beach FL 33435,26.53496,-80.06384
395,,225 NW 12th Ave Boynton Beach FL 33435,26.53773,-80.06801
396,,1021 S Federal Hwy Boynton Beach FL 33435,26.51878,-80.05882
397,,50 NW 1st Ave Delray Beach FL 33444,26.46263,-80.07468
398,,2455 W Atlantic Ave Delray Beach FL 33445,26.46173,-80.09749
399,,1101 NW 2nd St Delray Beach FL 33444,26.46583,-80.08431
400,,400 SW 12Th Ave Delray Beach FL 33444,26.45327,-80.08597
401,,100 W Atlantic Ave Delray Beach FL 33444,26.46132,-80.07453
402,,242 S Military Trail West Palm Beach FL 33415,26.67374,-80.1122
403,,240 S Military Trail West Palm Beach FL 33415,26.67403,-80.11123
404,,12600 W Indiantown Rd Jupiter FL 33478,26.94183,-80.23305
405,,10100 W Indiantown Rd Jupiter FL 33478,26.94091,-80.19439
406,,17400 Haynie Ln Jupiter FL 33478,26.9321,-80.2178
407,,16655 Jupiter Farms Rd Jupiter FL 33478,26.92256,-80.19183
408,,6401 Indiantown Rd Jupiter FL 33458,26.93555,-80.13308
409,,6701 Church St Jupiter FL 33458,26.94361,-80.13701
410,,1701 Indian Creek Pkwy Jupiter FL 33458,26.91315,-80.12572
411,,4750 Dakota Dr Jupiter FL 33458,26.90391,-80.10691
412,,150 School House Rd Jupiter FL 33458,26.88751,-80.09795
413,,100 S Pennock Ln Jupiter FL 33458,26.93291,-80.11051
414,,200 Military Trl Jupiter FL 33458,26.93299,-80.1036
415,,800 Maplewood Dr Jupiter FL 33458,26.92743,-80.12541
416,,4001 Greenway Dr Jupiter FL 33458,26.8977,-80.12227
417,,1812 Dakota Dr Jupiter FL 33458,26.90661,-80.12519
418,,179 Freeport Dr Jupiter FL 33458,26.89071,-80.12441
419,,423 Tequesta Dr Tequesta FL 33469,26.95909,-80.09793
420,,25 Van Rd Jupiter FL 33469,26.95229,-80.09125
421,,200 S Loxahatchee Dr Jupiter FL 33458,26.9317,-80.10077
422,,500 N Military Trl Jupiter FL 33458,26.68463,-80.11179
423,,705 Military Trl Jupiter FL 33458,26.92709,-80.10124
424,,15245 N Military Trl Jupiter FL 33458,26.88278,-80.10368
425,,345 Tequesta Dr Tequesta FL 33469,26.95939,-80.09268
