Unnamed: 0,name,address,lat,lon
1,,7850 Highway 97 Walnut Hill FL 32568,30.90114,-87.47911
2,,900 North F St Pensacola FL 32501,30.42174,-87.23081
3,,221 Palafox Pl Pensacola FL 32502,30.40966,-87.21555
4,,140 W Bogia Rd McDavid FL 32568,30.84279,-87.33302
5,,6055 Barrineau Park School Rd MOLINO FL 32577,30.71174,-87.40537
6,,375 Muscogee Rd Cantonment FL 32533,30.60551,-87.32273
7,,7995 N Century Blvd Century FL 32535,30.97638,-87.26224
8,,1701 Highway 4A Century FL 32535,30.9989,-87.29538
9,,301 E Winthrop Ave Pensacola FL 32507-3669,30.38465,-87.27493
10,,11000 University Pkwy Pensacola FL 32514,30.54914,-87.21859
11,,6655 Mobile Hwy Pensacola FL 32526,30.47339,-87.31091
12,,8198 Untreiner Ave Pensacola FL 32534,30.51574,-87.27947
13,,500 N Davis Hwy Pensacola FL 32501,30.41987,-87.21002
14,,2130 Summit Blvd PENSACOLA FL 32504,30.4672,-87.19813
15,,18 W Wright St Pensacola FL 32501,30.41699,-87.21677
16,,913 South I St Pensacola FL 32502,30.4008,-87.23641
17,,4570 W Highway 4 Century FL 32535,30.95271,-87.12137
18,,820 Massachusetts Ave Pensacola FL 32505,30.45385,-87.25868
19,,3208 E Gonzalez St Pensacola FL 32503,30.42809,-87.17767
20,,2490 Quintette Ln CANTONMENT FL 32533,30.65606,-87.32515
21,,1590 Pauline St Cantonment FL 32533,30.58088,-87.29381
22,,2000 E Lloyd St Pensacola FL 32503,30.43266,-87.19058
23,,3300 Summit Blvd Pensacola FL 32503-4307,30.46027,-87.17797
24,,7561 Mobile Hwy Pensacola FL 32526,30.5069,-87.35924
25,,3400 Bayou Blvd Pensacola FL 32503,30.45717,-87.19657
26,,3200 W DeSoto St Pensacola FL 32505,30.42366,-87.25383
27,,3363 West Park Pl Pensacola FL 32505,30.44672,-87.234
28,,6601 N 9TH Ave PENSACOLA FL 32504,30.49227,-87.19416
29,,925 E Jackson St Pensacola FL 32501,30.42099,-87.20549
30,,2320 E Johnson Ave Pensacola FL 32514,30.51777,-87.2127
31,,727 S 72nd Ave Pensacola FL 32506,30.4009,-87.30851
32,,1551 Dog Track Rd Pensacola FL 32506,30.38452,-87.35879
33,,1301 W Gregory St Pensacola FL 32502,30.41382,-87.23295
34,,6700 Spanish Trl Pensacola FL 32504,30.49154,-87.16664
35,,3511 W Scott St Pensacola FL 32505,30.43777,-87.25708
36,,5820 Montgomery Ave Pensacola FL 32526,30.45833,-87.2947
37,,6405 WAGNER RD Pensacola FL 32505,30.49172,-87.2735
38,,5725 N 9th Ave Pensacola FL 32504,30.48216,-87.20482
39,,10650 Gulf Beach Hwy Pensacola FL 32507,30.32835,-87.36774
40,,219 E Johnson Ave Pensacola FL 32514,30.51782,-87.25627
41,,"250 W Burgess Rd Pensacola, FL 32503",30.49868,-87.25919
42,,406 S Navy Blvd Pensacola FL 32507,30.38213,-87.27719
43,,4600 N 9th Ave Pensacola FL 32503,30.46549,-87.21366
44,,4110 Bauer Rd Pensacola FL 32506,30.34574,-87.40456
45,,3740 Stefani Rd Cantonment FL 32533,30.54267,-87.29959
46,,5000 Cerny Rd Pensacola FL 32526,30.44951,-87.31657
47,,700 S Old Corry Field Rd PENSACOLA FL 32507,30.39811,-87.27111
48,,5920 Lillian Hwy Pensacola FL 32506,30.42497,-87.29524
49,,2601 W Strong St Pensacola FL 32505,30.42183,-87.24744
50,,105 Gulf Beach Hwy PENSACOLA FL 32507,30.38689,-87.28036
51,,2920 Bellview Ave Pensacola FL 32526,30.469,-87.29781
52,,1836 E Olive Rd Pensacola FL 32514,30.51297,-87.22331
53,,620 E Jordan St Pensacola FL 32503,30.43532,-87.21187
54,,920 Panferio Dr PENSACOLA BEACH FL 32561,30.33897,-87.11263
55,,12600 Sorrento Rd Pensacola FL 32507,30.33853,-87.40793
56,,3802 N 9th Ave Pensacola FL 32503,30.45145,-87.21311
57,,5920 Lililian HWY Pensacola FL 32506,30.42497,-87.29524
58,,1101 W Nine Mile Rd Pensacola FL 32534,30.53303,-87.28957
59,,6205 N W ST PENSACOLA FL 32505,30.47428,-87.25725
60,,1100 W Michigan Ave Pensacola FL 32505,30.4604,-87.27081
61,,701 S Madison Dr Pensacola FL 32505,30.44129,-87.27682
62,,13660 Innerarity Point Rd Pensacola FL 32507,30.31898,-87.42861
63,,3600 Creighton Rd Pensacola FL 32504,30.50056,-87.17614
64,,7979 N 9th Ave Pensacola FL 32514,30.50763,-87.18505
65,,115 St John St Pensacola FL 32503,30.47146,-87.24088
66,,1394 E Nine Mile Rd Pensacola FL 32514,30.53352,-87.23594
67,,800 E Nine Mile Rd Pensacola FL 32514,30.53355,-87.24904
68,,6551 N Palafox St Pensacola FL 32503,30.48713,-87.25052
69,,9896 Rebel Rd Pensacola FL 32526,30.54244,-87.3877
70,,9301 Gulf Beach Hwy Pensacola FL 32507,30.36003,-87.34302
71,,1030 N 57th Ave Pensacola FL 32506,30.42439,-87.29132
72,,2800 Wilde Lake Blvd Pensacola FL 32526,30.52035,-87.31959
73,,699 S Highway 95A Cantonment FL 32533,30.61875,-87.32354
74,,2198 Highway 297A Cantonment FL 32533,30.57142,-87.32744
