Unnamed: 0,name,address,lat,lon
1,,5501 31st St S FL 33712,27.71781,-82.67585
2,,1095 Pinellas Point Dr S FL 33705,27.70702,-82.64767
3,,5995 ML King St S FL 33705,27.71432,-82.64687
4,,1600 54th Ave S FL 33712,27.71872,-82.656
5,,7000 4th St S FL 33705,27.70454,-82.64121
6,,3850 Pompano Dr SE FL 33705,27.73481,-82.63596
7,,4201 6th St S FL 33705,27.72969,-82.64121
8,,3601 38th Ave S FL 33711,27.73444,-82.68184
9,,3747 34th St S FL 33711,27.73421,-82.68011
10,,4025 31st St S FL 33712,27.73122,-82.67595
11,,2512 22nd Ave S FL 33712,27.74804,-82.66763
12,,2120 19th St S FL 33712,27.74917,-82.65874
13,,1310 22nd Ave S FL 33705,27.74807,-82.65278
14,,2000 7th St S FL 33705,27.75042,-82.64151
15,,1045 16th St S FL 33705,27.75996,-82.65539
16,,130 19th Ave SE FL 33705,27.75142,-82.6333
17,,601 14th St S FL 33705,27.76395,-82.65282
18,,1000 28th St S FL 33712,27.75974,-82.6705
19,,1035 Burlington Ave N FL 33705,27.7744,-82.6494
20,,535 4th Ave N FL 33701,27.7768,-82.64116
21,,440 4th Ave N FL 33701,27.77608,-82.63954
22,,2750 5th Ave N FL 33713,27.77701,-82.6706
23,,3150 5th Ave N FL 33713,27.77678,-82.67628
24,,3241 30th Ave N FL 33713,27.79967,-82.67789
25,,3900 28th St N FL 33714,27.80761,-82.67163
26,,2500 16th St N FL 33704,27.79534,-82.65575
27,,1825 4th St N FL 33704,27.78958,-82.63843
28,,126 11th Ave NE FL 33701,27.78275,-82.63389
29,,2812 8th St N FL 33704,27.79784,-82.64493
30,,301 37th Ave N FL 33704,27.8061,-82.6375
31,,1376 Snell Isle Blvd NE FL 33704,27.80381,-82.61086
32,,4344 21st St N FL 33714,27.81174,-82.66147
33,,1246 50th Ave N FL 33703,27.81687,-82.65176
34,,2612 12th St N FL 33704,27.79586,-82.6506
35,,4545 Chancellor St NE FL 33703,27.81282,-82.60064
36,,4400 Shores Acres Blvd NE FL 33703,27.81252,-82.61003
37,,150 62nd Ave NE FL 33702,27.82783,-82.63345
38,,175 62nd Ave N FL 33702,27.82893,-82.63539
39,,4100 62nd Ave FL 33781,27.82738,-82.68843
40,,1900 61st Ave N FL 33714,27.82689,-82.66013
41,,861 70th Ave N FL 33702,27.83596,-82.64585
42,,6635 ML King St N FL 33702,27.83296,-82.64611
43,,7201 1st St NE FL 33702,27.83784,-82.63465
44,,6333 1st St NE FL 33702,27.8298,-82.63418
45,,434 90th Ave N FL 33702,27.85399,-82.64027
46,,845 87th Ave N FL 33702,27.85191,-82.64622
47,,3401 Gandy Blvd FL 33781,27.84416,-82.68135
48,,4400 70th Ave FL 33781,27.83505,-82.69487
49,,9950 Mainlands Blvd E FL 33782,27.86167,-82.68256
50,,1900 Gandy Blvd FL 33702,27.85258,-82.65815
51,,10441 Gandy Blvd FL 33702,27.86677,-82.62992
52,,4591 Lake Blvd FL 33762,27.86588,-82.69447
53,,13880 Feather Sound Dr FL 33762,27.89772,-82.67395
54,,107 16th Ave FL 33706,27.69391,-82.7367
55,,4600 54th Ave S FL 33711,27.71767,-82.69627
56,,3455 26th Ave S FL 33711,27.74538,-82.68064
57,,1137 37th St S FL 33711,27.75882,-82.68382
58,,5313 27th Ave S FL 33707,27.74367,-82.70628
59,,5501 28th Ave S FL 33707,27.74269,-82.70788
60,,5730 Shore Blvd S FL 33707,27.73694,-82.71134
61,,1000 55th St S FL 33707,27.76016,-82.70764
62,,5800 15th Ave S FL 33707,27.75506,-82.71285
63,,227 70th St S FL 33707,27.76789,-82.73564
64,,635 64th St S FL 33707,27.76332,-82.72469
65,,6168 1st Ave N FL 33710,27.77148,-82.71992
66,,7047 Sunset Dr S FL 33707,27.76181,-82.7404
67,,4630 Tifton Dr S FL 33711,27.73904,-82.69697
68,,1150 49th St N FL 33710,27.78339,-82.70044
69,,4901 5th Ave N FL 33710,27.77752,-82.70047
70,,6315 Central Ave FL 33710,27.77113,-82.72309
71,,4301 13th Ave S FL 33711,27.75864,-82.69323
72,,4444 5th Ave N FL 33713,27.77702,-82.69369
73,,505 35th St S FL 33711,27.76616,-82.68121
74,,4200 5th Ave S FL 33711,27.76606,-82.69093
75,,5441 9th Ave N FL 33710,27.78184,-82.70728
76,,3600 76th St N FL 33710,27.80482,-82.7441
77,,6745 38th Ave N FL 33710,27.80726,-82.73155
78,,5401 22nd Ave N FL 33710,27.79286,-82.70708
79,,3800 17th Ave N FL 33713,27.78797,-82.68552
80,,4515 38th Ave N FL 33713,27.80688,-82.69445
81,,7900 22nd Ave N FL 33710,27.7917,-82.74822
82,,7808 46th Ave N FL 33709,27.81277,-82.74639
83,,5700 40th Ave N FL 33709,27.80804,-82.71153
84,,4600 58th St N FL 33709,27.8142,-82.71277
85,,4501 30th Ave N FL 33713,27.79952,-82.69436
86,,7891 26th Ave N FL 33710,27.79557,-82.74756
87,,6022 80th St N FL 33709,27.8267,-82.7501
88,,7401 54th Ave N FL 33709,27.82202,-82.74163
89,,8098 66th St FL 33781,27.84529,-82.7291
90,,6051 78th Ave FL 33781,27.84336,-82.71682
91,,5972 62nd Ave FL 33781,27.82775,-82.71602
92,,4255 56th Ave N FL 33714,27.82312,-82.69102
93,,8800 Starkey Rd FL 33777,27.85196,-82.76337
94,,7950 58th Ave N FL 33709,27.82476,-82.74825
95,,6100 Augusta Blvd FL 33777,27.82793,-82.76311
96,,10500 Starkey Rd FL 33777,27.86719,-82.7629
97,,8345 Bardmoor Blvd FL 33777,27.86047,-82.75416
98,,6401 94th Ave FL 33782,27.85857,-82.72551
99,,7690 59th St FL 33781,27.84118,-82.71449
100,,9790 66th St FL 33782,27.86072,-82.72929
101,,10500 Starkey Road FL 33777,27.86719,-82.7629
102,,5501 110th Ave FL 33782,27.87286,-82.7104
103,,13001 Starkey Rd FL 33773,27.89092,-82.76234
104,,7100 Ulmerton Rd FL 33771,27.88967,-82.73943
105,,6340 126th Ave FL 33773,27.88559,-82.72169
106,,2050 S Belcher Rd FL 33771,27.92176,-82.74622
107,,11501 Walker Ave FL 33772,27.82538,-82.79841
108,,8505 113th St FL 33772,27.85045,-82.79449
109,,9801 Bay Pines Blvd FL 33708,27.81447,-82.77556
110,,12601 Park Blvd FL 33776,27.84456,-82.81428
111,,5400 Seminole Blvd FL 33772,27.82185,-82.7873
112,,6155 113th St FL 33772,27.82839,-82.79425
113,,13400 Park Blvd FL 33776,27.84319,-82.82472
114,,11025 131st St FL 33774,27.87337,-82.81937
115,,9399 Commodore Dr FL 33776,27.85787,-82.83478
116,,11220 Oakhurst Rd FL 33774,27.87529,-82.83343
117,,11909 125th St FL 33774,27.88125,-82.81074
118,,12855 110th Ave FL 33774,27.87341,-82.81666
119,,10891 102nd Ave FL 33778,27.8656,-82.78987
120,,11803 104th St FL 33773,27.87926,-82.78135
121,,13301 Walsingham Rd FL 33774,27.88098,-82.82241
122,,12520 Ulmerton Rd FL 33774,27.88382,-82.8107
123,,13233 Indian Rocks Rd FL 33774,27.89263,-82.83074
124,,1801 119th St FL 33778,27.90032,-82.80275
125,,1800 Seminole Blvd FL 33778,27.90485,-82.79268
126,,901 Seminole Blvd FL 33770,27.90665,-82.7859
127,,295 Central Park Dr FL 33771,27.91328,-82.78492
128,,1100 S Belcher Rd FL 33771,27.90755,-82.7463
129,,14300 66th St N FL 33764,27.90274,-82.73168
130,,5812 150th Ave N FL 33760,27.90846,-82.71326
131,,4825 East Bay Dr FL 33764,27.91562,-82.73691
132,,601 Starkey Rd FL 33771,27.91383,-82.76236
133,,1685 S Belcher Rd FL 33764,27.93529,-82.74444
134,,1199 Highland Ave FL 33770,27.92842,-82.77541
135,,1698 S Belcher Rd FL 33764,27.93527,-82.74706
136,,1885 S Highland Ave FL 33756,27.92876,-82.77367
137,,3115 Dryer Ave FL 33770,27.90293,-82.81862
138,,2747 Sunset Blvd FL 33770,27.91907,-82.81688
139,,1150 8th Ave SW FL 33770,27.91072,-82.80043
140,,901 Ponce de Leon Blvd FL 33756,27.93486,-82.80421
141,,9200 113th St FL 33772,27.85866,-82.79643
142,,1430 Belleair Rd FL 33756,27.94003,-82.77777
143,,1271 Pinellas Bayway S FL 33715,27.67466,-82.72479
144,,1500 Pass-A-Grille Way FL 33706,27.69306,-82.73619
145,,7701 Boca Ciega Dr FL 33706,27.74501,-82.74938
146,,1 Park Pl FL 33706,27.76747,-82.76778
147,,300 Municipal Dr FL 33708,27.80446,-82.80194
148,,105 164th Ave FL 33708,27.81457,-82.8178
149,,190 173rd Ave FL 33708,27.82273,-82.82495
150,,17425 Gulf Blvd FL 33708,27.81361,-82.81812
151,,19305 Gulf Blvd FL 33785,27.84793,-82.84248
152,,1507 Bay Palm Blvd FL 33785,27.89789,-82.84562
153,,444 Causeway Blvd FL 33786,27.91719,-82.84155
154,,1426 S Ml King Jr Ave FL 33756,27.9453,-82.79314
155,,1445 Lakeview Rd FL 33756,27.9492,-82.77709
156,,1676 S Belcher Rd FL 33764,27.93627,-82.74667
157,,1875 Nursery Rd FL 33764,27.94174,-82.76004
158,,2299 Drew St FL 33765,27.96693,-82.74268
159,,2039 Druid Rd E FL 33764,27.95659,-82.75271
160,,1200 S Keene Rd FL 33756,27.95202,-82.76321
161,,2001 Rainbow Dr FL 33765,27.96199,-82.75397
162,,407 S Staurn Ave FL 33755,27.96094,-82.76442
163,,820 Jasmine Way FL 33756,27.95602,-82.7955
164,,1001 Gulf Blvd FL 33767,27.9551,-82.82674
165,,69 Bay Esplanade FL 33767,27.98465,-82.82518
166,,245 Dory Passage FL 33767,27.97891,-82.8182
167,,900 N ML King Jr Ave FL 33755,27.97448,-82.7926
168,,1260 Engman St FL 33755,27.97884,-82.78504
169,,1521 N Saturn Ave FL 33755,27.98314,-82.76344
170,,714 N Saturn Ave FL 33755,27.9735,-82.7661
171,,2010 Greenbriar Blvd FL 33763,28.0053,-82.7557
172,,1625 N Belcher Rd FL 33765,27.98188,-82.74466
173,,2069 World Parkway Blvd FL 33763,27.9964,-82.73788
174,,2291 World Parkway Blvd W FL 33763,27.99905,-82.74318
175,,2281 State Road 580 FL 33763,28.01866,-82.745
176,,885 Lake Haven Rd FL 34698,28.01602,-82.76906
177,,2289 N Hercules Ave FL 33763,28.00426,-82.75414
178,,700 Mease Plaza FL 34698,28.01457,-82.7806
179,,2897 Belcher Rd FL 34698,28.02609,-82.74611
180,,29250 Us Highway 19 N FL 33761,28.03832,-82.74097
181,,1289 Michigan Blvd FL 34698,28.03725,-82.76817
182,,1620 Pinehurst Rd FL 34698,28.02741,-82.77218
183,,1920 Pinehurst Rd FL 34698,28.03668,-82.7728
184,,1251 San Christopher Dr FL 34698,28.02277,-82.77385
185,,2210 Cathedral Dr FL 34683,28.0533,-82.7459
186,,455 Scotland St FL 34698,28.00954,-82.78611
187,,705 Michigan Blvd FL 34698,28.03668,-82.78084
188,,2330 Nebraska Ave FL 34683,28.07777,-82.7427
189,,1190 Georgia Ave FL 34683,28.07679,-82.7652
190,,1551 Belcher Rd FL 34683,28.08197,-82.74854
191,,1500 16th St FL 34683,28.08167,-82.75663
192,,517 Crystal Beach Ave FL 34681,28.09092,-82.77942
193,,1700 Klosterman Rd FL 34683,28.12235,-82.75691
194,,309 Westwinds Dr FL 34683,28.12183,-82.7736
195,,4670 East Bay Dr FL 33764,27.91697,-82.73878
196,,18675 US Highway 19 N FL 33764,27.94233,-82.7293
197,,3500 Cove Cay Dr FL 33760,27.93386,-82.72518
198,,2900 Drew St FL 33759,27.9707,-82.71848
199,,101 2nd St N FL 34695,27.99177,-82.68838
200,,923 N McMullen Booth Rd FL 33759,27.97367,-82.70829
201,,2817 Sunset Point Rd FL 33759,27.99028,-82.72026
202,,2680 Landmark Dr FL 33761,28.01882,-82.71745
203,,2180 N McMullen Booth Rd FL 33759,28.00076,-82.70806
204,,2405 Philippe Pkwy FL 34695,28.01118,-82.68507
205,,2525 N McMullen Booth Rd FL 33761,28.01507,-82.70807
206,,2741 State Road 580 FL 33761,28.01885,-82.72374
207,,2640 Sabel Springs Dr FL 33761,28.02316,-82.72856
208,,2875 State Road 580 FL 33761,28.01882,-82.71821
209,,100 Briar Creek Blvd FL 34695,28.03691,-82.7037
210,,400 St Petersburg Dr E FL 34677,28.03352,-82.66035
211,,225 Pine Ave N FL 34677,28.04405,-82.67058
212,,151 B Gulle Aire Blvd FL 34677,28.04757,-82.70042
213,,3166 N McMullen Booth Rd FL 33761,28.03561,-82.70985
214,,2801 Curlew Rd FL 33761,28.04777,-82.72089
215,,1055 East Lake Woodlands Pkwy FL 34677,28.06109,-82.69497
216,,45 Katherine Blvd FL 34684,28.06336,-82.71136
217,,900 West Lake Rd FL 34684,28.07513,-82.73582
218,,3300 MacGregor Dr FL 34684,28.08133,-82.72408
219,,2757 Alderman Rd FL 34684,28.09432,-82.73438
220,,38724 US Highway 19 N FL 34689,28.12418,-82.74108
221,,1555 Windmill Pointe Rd FL 34685,28.10005,-82.69509
222,,2801 East Lake Rd FL 34685,28.09316,-82.69542
223,,4125 East Lake Rd FL 34685,28.11112,-82.69369
224,,409 Whitcomb Blvd FL 34689,28.14175,-82.76793
225,,61000 Polly Dr FL 34689,28.14065,-82.74382
226,,400 S Walton Ave FL 34689,28.14269,-82.74716
227,,36 N Pinellas Ave FL 34689,28.14688,-82.75635
228,,1021 Gulf Rd FL 34689,28.14445,-82.77183
229,,100 Beekman Ln FL 34689,28.14617,-82.76066
230,,475 East Lake Rd N FL 34688,28.15533,-82.69509
231,,812 E Tarpon Ave FL 34689,28.14577,-82.74376
