Unnamed: 0,name,address,lat,lon
1,,7801 Lone Star Rd FL 32211,30.33621,-81.57956
2,,3421 University Blvd N FL 32277,30.36097,-81.60533
3,,8264 Lone Star Rd FL 32211,30.33708,-81.56755
4,,8075 Lone Star Rd FL 32211,30.33802,-81.5716
5,,7024 Merrill Rd FL 32277,30.35102,-81.58099
6,,4012 University Blvd N FL 32277,30.37451,-81.60786
7,,6009 Arlington Rd FL 32211,30.33419,-81.59658
8,,2130 University Blvd N FL 32211,30.34392,-81.60301
9,,431 University Blvd N FL 32211,30.32391,-81.60518
10,,6429 Atlantic Blvd FL 32211,30.31314,-81.5928
11,,3754 Univ Club Blvd FL 32277,30.36749,-81.59721
12,,9900 Regency Square Blvd FL 32225,30.32565,-81.54276
13,,7535 Ft Caroline Rd FL 32277,30.36698,-81.5728
14,,88 Arlington Rd N FL 32211,30.31449,-81.57952
15,,10148 New Berlin Rd FL 32226,30.41347,-81.56602
16,,13720 McCormick Rd FL 32225,30.35775,-81.48581
17,,1211 Lee Rd FL 32225,30.34148,-81.53587
18,,11553 Main St N FL 32218,30.44627,-81.63887
19,,1425 Starratt Rd FL 32218,30.48502,-81.59271
20,,12355 Ft Caroline Rd FL 32225,30.37979,-81.50266
21,,3450 Monument Rd FL 32225,30.36746,-81.50351
22,,2311 Starratt Rd FL 32226,30.50136,-81.58525
23,,13720 Mt Pleasant Rd FL 32225,30.36243,-81.48382
24,,8203 Heckscher Dr FL 32226,30.39596,-81.46018
25,,2636 New Berlin Rd FL 32218,30.46335,-81.5869
26,,15770 Sawpit Rd FL 32226,30.5194,-81.48251
27,,3901 Monument Rd FL 32225,30.37459,-81.49654
28,,1131 Queens Harbor Blvd FL 32225,30.3442,-81.45079
29,,251 Joeandy Rd FL 32225,30.32569,-81.4603
30,,2002 San Pablo Rd S FL 32224,30.31434,-81.44918
31,,4140 Hodges Blvd FL 32224,30.26728,-81.46561
32,,270 Kernan Blvd N FL 32225,30.32808,-81.49071
33,,13363 Beach Blvd FL 32246,30.28833,-81.46435
34,,2130 The Woods Dr E FL 32246,30.31455,-81.46405
35,,13001 Atlantic Blvd FL 32225,30.32029,-81.46528
36,,14097 W M Davis Pkwy FL 32224,30.26612,-81.44657
37,,1821 San Pablo Rd S FL 32224,30.31617,-81.44798
38,,13295 Beach Blvd FL 32246,30.28822,-81.4733
39,,750 Girvin Rd FL 32225,30.33397,-81.46902
40,,6411 Beach Blvd FL 32216,30.29096,-81.59508
41,,2360 St Johns Bluff Rd S FL 32246,30.30716,-81.52784
42,,2300 Southside Blvd FL 32216,30.30378,-81.55926
43,,730 Mandalay Rd FL 32216,30.30062,-81.58179
44,,6755 Atlantic Blvd FL 32211,30.31399,-81.58856
45,,3834 Southside Blvd FL 32216,30.2769,-81.56031
46,,3335 Tiger Hole Rd FL 32216,30.26547,-81.58095
47,,1968 Dean Rd FL 32216,30.28582,-81.59282
48,,6625 Terry Rd FL 32216,30.27758,-81.59335
49,,2600 St Johns Bluff Rd S FL 32246,30.30062,-81.52748
50,,10540 Anders Blvd FL 32246,30.27789,-81.53927
51,,9745 Gate Pkwy N FL 32246,30.26203,-81.55278
52,,1513 La Salle St FL 32207,30.30916,-81.65415
53,,2118 Kings Ave FL 32207,30.30675,-81.64657
54,,8111 Old Kings Rd S FL 32217,30.23328,-81.60174
55,,3120 Hendricks Ave FL 32207,30.29208,-81.64931
56,,3976 Hendricks Ave FL 32207,30.28091,-81.65167
57,,3949 Atlantic Blvd FL 32207,30.30709,-81.62465
58,,4001 Hendricks Ave FL 32207,30.28015,-81.65034
59,,6233 San Jose Blvd FL 32217,30.25762,-81.64256
60,,7576 San Jose Blvd FL 32217,30.24033,-81.62482
61,,8855 Sanchez Rd FL 32217,30.22104,-81.6068
62,,3620 Bedford Rd FL 32207,30.28841,-81.61801
63,,4266 Sunbeam Rd FL 32257,30.2045,-81.60522
64,,4050 Barnes Rd FL 32207,30.28351,-81.6098
65,,2838 Westberry Rd FL 32223,30.13928,-81.63626
66,,10911 Old St Augustine Rd FL 32257,30.17673,-81.60434
67,,3330 Kori Rd FL 32257,30.20524,-81.62089
68,,12001 Mandarin Rd FL 32223,30.16407,-81.6457
69,,12236 Mandarin Rd FL 32223,30.16417,-81.65286
70,,12125 San Jose Blvd FL 32223,30.15025,-81.63221
71,,10141 Old St Augustine Rd FL 32257,30.19372,-81.60937
72,,3423 Loretto Rd FL 32223,30.16011,-81.6216
73,,3740 Burnett Park Rd FL 32257,30.17654,-81.6188
74,,12460 Old St Augustine Rd FL 32258,30.15142,-81.5831
75,,9791 Old St Augustine Rd FL 32257,30.19999,-81.61502
76,,12791 Old St Augustine Rd FL 32258,30.14976,-81.57488
77,,4450 Losco Rd FL 32257,30.17054,-81.59754
78,,5110 Lourcey Rd FL 32257,30.19814,-81.58076
79,,281 44th St E FL 32208,30.37286,-81.64609
80,,12215 Sago Ave W FL 32218,30.45942,-81.63179
81,,23 8th St W FL 32206,30.34608,-81.65446
82,,3057 Dunn Ave FL 32218,30.439,-81.69962
83,,4110 Franklin St FL 32206,30.36334,-81.63984
84,,5120 Perry St FL 32208,30.37093,-81.65791
85,,1390 Harrison St FL 32206,30.33993,-81.64053
86,,12103 Biscayne Blvd FL 32218,30.45201,-81.66741
87,,1826 Dunn Ave FL 32218,30.43448,-81.67587
88,,1050 Franklin St FL 32206,30.33482,-81.63987
89,,150 1st St E FL 32206,30.33558,-81.65257
90,,701 Ocean St N FL 32202,30.33139,-81.65483
91,,1553 21st St E FL 32206,30.35787,-81.63415
92,,950 Edgewood Ave W FL 32208,30.39198,-81.6731
93,,3738 Winton Dr FL 32208,30.38851,-81.7078
94,,11100 Wingate Rd FL 32218,30.43668,-81.71036
95,,7137 Main St N FL 32208,30.38438,-81.64876
96,,9620 Water St FL 32208,30.41437,-81.68858
97,,4415 Moncrief Rd FL 32209,30.36733,-81.68038
98,,1755 Edgewood Ave W FL 32208,30.38727,-81.68625
99,,5570 Golfbrook Dr FL 32208,30.37506,-81.68269
100,,3730 Moncrief Rd FL 32209,30.36136,-81.67772
101,,485 Halsema Rd N FL 32220,30.32254,-81.86828
102,,2165 33rd St W FL 32209,30.36502,-81.69637
103,,1093 6th St W FL 32209,30.3448,-81.67088
104,,5330 Dunn Ave FL 32218,30.43619,-81.73483
105,,4238 Jones Rd FL 32219,30.37318,-81.80742
106,,2304 Myrtle Ave N FL 32209,30.35166,-81.67606
107,,6521 Norwood Ave FL 32208,30.37855,-81.66879
108,,2159 Broward Rd FL 32218,30.4241,-81.67854
109,,9113 Ridge Blvd FL 32208,30.40595,-81.70651
110,,4076 Union Hall Pl FL 32205,30.31987,-81.71977
111,,1697 Kings Rd FL 32209,30.34424,-81.68375
112,,2000 Lane Ave S FL 32210,30.28176,-81.75621
113,,2500 20th St W FL 32209,30.35563,-81.7022
114,,6887 103rd St FL 32210,30.24915,-81.75691
115,,6317 103rd St FL 32210,30.24925,-81.74608
116,,5223 Wesconnett Blvd FL 32210,30.24964,-81.73893
117,,5634 Normandy Blvd FL 32205,30.30781,-81.74476
118,,2297 Edison Ave FL 32204,30.32305,-81.68934
119,,1083 Line St FL 32209,30.33908,-81.69689
120,,2839 Beaver St W FL 32254,30.33069,-81.71513
121,,1225 Beaver St W FL 32204,30.33643,-81.6743
122,,5711 Wesconnett Blvd FL 32244,30.24416,-81.73742
123,,7673 Blanding Blvd FL 32244,30.20838,-81.73851
124,,8973 Sibbald Rd FL 32208,30.40159,-81.73016
125,,3026 Woodlawn Rd FL 32209,30.37893,-81.71709
126,,2803 Edgewood Ave W FL 32209,30.37798,-81.71087
127,,6910 New Kings Rd FL 32219,30.38293,-81.73186
128,,5130 soutel dr FL 32208,30.39622,-81.72594
129,,2956 Lane Ave N FL 32254,30.35937,-81.75196
130,,5755 Ramona Blvd FL 32205,30.31471,-81.74693
131,,6974 Wilson Blvd FL 32210,30.26971,-81.75906
132,,4151 Old Middleburg Rd N FL 32210,30.26167,-81.7804
133,,6743 Watoma St FL 32210,30.2586,-81.75365
134,,7035 Commonwealth Ave FL 32220,30.33685,-81.76226
135,,7844 Gregory Dr FL 32210,30.25999,-81.77973
136,,1372 Lane Ave S FL 32205,30.29764,-81.75238
137,,8535 118th St FL 32244,30.23607,-81.79113
138,,6561 Firestone Rd FL 32244,30.23026,-81.76375
139,,7310 Collins Rd FL 32244,30.20334,-81.76379
140,,7620 Timberlin Park Blvd FL 32256,30.19709,-81.54995
141,,4590 Glen Kernan Pkwy E FL 32224,30.25628,-81.48388
142,,8515 Hampton Ridge Blvd FL 32256,30.21194,-81.53294
143,,6045 Greenland Rd FL 32258,30.1646,-81.54584
144,,4000 Kernan Blvd S FL 32224,30.2788,-81.49466
145,,11083 Nursery Fields Dr FL 32256,30.22033,-81.5128
146,,7816 McLaurin Rd N FL 32256,30.18401,-81.5405
147,,10023 Belle Rive Blvd FL 32256,30.21051,-81.54942
148,,10239 Golf Club Dr FL 32256,30.22589,-81.5456
149,,13950 Village Lake Cir FL 32258,30.13853,-81.54482
150,,7860 Southside Blvd FL 32256,30.22755,-81.55364
151,,10599 Deerwood Park Blvd FL 32256,30.24905,-81.5395
152,,9150 Baymeadows Rd FL 32256,30.21979,-81.56864
153,,8313 Baycenter Rd FL 32256,30.22842,-81.58856
154,,8081 Lenox Ave FL 32221,30.30107,-81.78348
155,,9120 Crystal Springs Rd FL 32221,30.30045,-81.80599
156,,55 Jackson Ave N FL 32220,30.32384,-81.78549
157,,18065 Pennsylvania Ave FL 32234,30.20089,-82.00494
158,,1371 Hammond Blvd FL 32221,30.2974,-81.79578
159,,2197 Blair Rd FL 32221,30.2766,-81.83178
160,,10 U S Hwy 90 W FL 32234,30.30259,-81.97583
161,,2550 Fouraker Rd FL 32210,30.27416,-81.78246
162,,24 Celery Ave N FL 32220,30.31603,-81.84502
163,,7100 Shindler Dr FL 32222,30.21644,-81.79911
164,,7216 Old Middleburg Rd S FL 32222,30.21745,-81.81736
165,,1425 Chaffee Rd S FL 32221,30.29438,-81.84774
166,,9900 103rd St FL 32210,30.24692,-81.82116
167,,281 19th Ave S FL 32250,30.27147,-81.38758
168,,1423 8th Ave N FL 32250,30.29562,-81.40503
169,,1151 4th St S FL 32250,30.27754,-81.39035
170,,11 3rd St N FL 32250,30.28976,-81.39144
171,,600 3rd St FL 32266,30.31977,-81.3981
172,,800 Seminole Rd FL 32233,30.33208,-81.40301
173,,716 Ocean Blvd FL 32233,30.33204,-81.39744
174,,150 Sherry Dr FL 32233,30.32596,-81.40047
175,,2004 Forest Ave FL 32266,30.31508,-81.41912
176,,2125 Strand St FL 32266,30.30792,-81.39285
177,,1220 Marsh Landing Pkwy FL 32250,30.25523,-81.39786
178,,1025 Snug Harbor Ct FL 32233,30.33242,-81.41907
179,,3044 San Pablo Rd S FL 32224,30.29222,-81.43946
180,,4870 Ocean St FL 32233,30.39636,-81.42773
181,,2560 Mayport Rd FL 32233,30.35765,-81.41366
182,,6823 Argyle Forest Blvd FL 32244,30.19339,-81.75717
183,,8701 Argyle Forest Blvd FL 32244,30.19905,-81.79685
184,,7973 Old Middleburg Rd S FL 32222,30.2013,-81.8212
185,,1656 Edgewood Ave S FL 32205,30.30031,-81.70492
186,,4300 Post St FL 32205,30.30964,-81.72062
187,,7673 Collins Rd FL 32244,30.2058,-81.77221
188,,618 Stockton St FL 32204,30.31965,-81.69106
189,,4275 Herschel St FL 32210,30.28359,-81.7128
190,,5042 Timuquana Rd FL 32210,30.24664,-81.71288
191,,5391 Collins Rd FL 32244,30.20008,-81.71908
192,,4807 Roosevelt Blvd FL 32210,30.26941,-81.71113
193,,4758 Shelby Ave FL 32210,30.2891,-81.72759
194,,1415 McDuff Ave S FL 32205,30.30549,-81.69997
195,,1045 Oak St FL 32204,30.3139,-81.67939
196,,5927 Old Timuquana Rd FL 32210,30.24782,-81.73716
